NORAD_CAT_ID,OBJECT_NAME,OBJECT_TYPE,EPOCH,MEAN_MOTION,ECCENTRICITY,INCLINATION,RA_OF_ASC_NODE,ARG_OF_PERICENTER,MEAN_ANOMALY,BSTAR,MEAN_MOTION_DOT,MEAN_MOTION_DDOT,TLE_LINE0,TLE_LINE1,TLE_LINE2,SEMIMAJOR_AXIS,PERIOD,APOGEE,PERIGEE,DECAYED
54088.0,STARLINK-5153,PAYLOAD,2024-01-07 04:48:46,15.08843545,0.0001575,53.2179,291.8486,108.2832,251.8332,8.5061e-06,-1.53e-06,0.0,0 STARLINK-5153,1 54088U 22136AP  24007.20053924 -.00000153  00000-0  85061-5 0  9992,2 54088  53.2179 291.8486 0001575 108.2832 251.8332 15.08843545 67341,6917.87,95.437,540.824,538.645,0.0
54088.0,STARLINK-5153,PAYLOAD,2024-01-07 22:18:01,15.08837905,0.0001695,53.2177,288.5763,115.115,245.0018,-2.6215e-05,-7.05e-06,0.0,0 STARLINK-5153,1 54088U 22136AP  24007.92918520 -.00000705  00000-0 -26215-4 0  9992,2 54088  53.2177 288.5763 0001695 115.1150 245.0018 15.08837905 67454,6917.887,95.438,540.924,538.579,0.0
54088.0,STARLINK-5153,PAYLOAD,2024-01-07 23:53:24,15.08839516,0.0001643,53.2177,288.2787,111.7227,248.394,-2.5775e-05,-6.98e-06,0.0,0 STARLINK-5153,1 54088U 22136AP  24007.99542437 -.00000698  00000-0 -25775-4 0  9990,2 54088  53.2177 288.2787 0001643 111.7227 248.3940 15.08839516 67930,6917.882,95.438,540.883,538.61,0.0
54088.0,STARLINK-5153,PAYLOAD,2024-01-08 04:39:33,15.08844691,0.0002008,53.2177,287.3867,115.1323,244.9877,-9.8212e-05,-1.851e-05,0.0,0 STARLINK-5153,1 54088U 22136AP  24008.19414300 -.00001851  00000-0 -98212-4 0  9998,2 54088  53.2177 287.3867 0002008 115.1323 244.9877 15.08844691 67492,6917.866,95.437,541.12,538.342,0.0
54088.0,STARLINK-5153,PAYLOAD,2024-01-08 22:08:48,15.08835223,0.0001803,53.2176,284.116,116.4744,243.6433,1.3704e-05,-7e-07,0.0,0 STARLINK-5153,1 54088U 22136AP  24008.92278827 -.00000070  00000-0  13704-4 0  9995,2 54088  53.2176 284.1160 0001803 116.4744 243.6433 15.08835223 67603,6917.895,95.438,541.007,538.513,0.0
54088.0,STARLINK-5153,PAYLOAD,2024-01-09 04:30:21,15.08837749,0.0001609,53.2174,282.9263,107.2281,252.8888,2.9791e-05,1.86e-06,0.0,0 STARLINK-5153,1 54088U 22136AP  24009.18774722  .00000186  00000-0  29791-4 0  9999,2 54088  53.2174 282.9263 0001609 107.2281 252.8888 15.08837749 68117,6917.887,95.438,540.865,538.639,0.0
54088.0,STARLINK-5153,PAYLOAD,2024-01-09 21:59:35,15.08839926,0.0001548,53.2179,279.6549,101.2659,258.8507,8.3558e-05,1.042e-05,0.0,0 STARLINK-5153,1 54088U 22136AP  24009.91638591  .00001042  00000-0  83558-4 0  9996,2 54088  53.2179 279.6549 0001548 101.2659 258.8507 15.08839926 67759,6917.881,95.438,540.817,538.675,0.0
54088.0,STARLINK-5153,PAYLOAD,2024-01-10 04:21:08,15.08842283,0.0001503,53.218,278.4659,89.7617,270.3547,0.00011841,1.597e-05,0.0,0 STARLINK-5153,1 54088U 22136AP  24010.18134421  .00001597  00000-0  11841-3 0  9990,2 54088  53.2180 278.4659 0001503  89.7617 270.3547 15.08842283 67792,6917.873,95.437,540.778,538.699,0.0
54088.0,STARLINK-5153,PAYLOAD,2024-01-11 01:01:09,15.08843598,0.0001735,53.2189,274.597,82.9917,277.1272,1.1953e-05,-9.8e-07,0.0,0 STARLINK-5153,1 54088U 22136AP  24011.04246956 -.00000098  00000-0  11953-4 0  9994,2 54088  53.2189 274.5970 0001735  82.9917 277.1272 15.08843598 68396,6917.869,95.437,540.935,538.534,0.0
54088.0,STARLINK-5153,PAYLOAD,2024-01-11 21:41:10,15.08843263,0.000135,53.2165,270.7384,81.8942,278.2203,1.3469e-05,-7.4e-07,0.0,0 STARLINK-5153,1 54088U 22136AP  24011.90358885 -.00000074  00000-0  13469-4 0  9992,2 54088  53.2165 270.7384 0001350  81.8942 278.2203 15.08843263 68054,6917.87,95.437,540.669,538.802,0.0
54088.0,STARLINK-5153,PAYLOAD,2024-01-12 00:51:55,15.0885083,0.0001342,53.2169,270.1424,96.2426,263.8719,4.8356e-05,4.82e-06,0.0,0 STARLINK-5153,1 54088U 22136AP  24012.03606142  .00000482  00000-0  48356-4 0  9994,2 54088  53.2169 270.1424 0001342  96.2426 263.8719 15.08850830 68549,6917.847,95.437,540.641,538.784,0.0
54088.0,STARLINK-5153,PAYLOAD,2024-01-12 16:45:48,15.08834494,0.0001556,53.2164,267.1708,107.877,252.2392,5.8119e-05,6.37e-06,0.0,0 STARLINK-5153,1 54088U 22136AP  24012.69847341  .00000637  00000-0  58119-4 0  9994,2 54088  53.2164 267.1708 0001556 107.8770 252.2392 15.08834494 68641,6917.897,95.438,540.839,538.686,0.0
54088.0,STARLINK-5153,PAYLOAD,2024-01-12 21:31:57,15.08838436,0.0001519,53.2172,266.2763,92.9943,267.1223,-9.6152e-06,-4.41e-06,0.0,0 STARLINK-5153,1 54088U 22136AP  24012.89719412 -.00000441  00000-0 -96152-5 0  9998,2 54088  53.2172 266.2763 0001519  92.9943 267.1223 15.08838436 68206,6917.885,95.438,540.801,538.699,0.0
54088.0,STARLINK-5153,PAYLOAD,2024-01-13 02:18:06,15.08839574,0.000156,53.2164,265.3848,85.1664,274.9506,3.1224e-05,2.09e-06,0.0,0 STARLINK-5153,1 54088U 22136AP  24013.09591311  .00000209  00000-0  31224-4 0  9995,2 54088  53.2164 265.3848 0001560  85.1664 274.9506 15.08839574 68238,6917.882,95.438,540.826,538.668,0.0
54088.0,STARLINK-5153,PAYLOAD,2024-01-13 19:47:21,15.08844515,0.0001371,53.2167,262.1122,94.6388,265.476,2.0558e-05,3.9e-07,0.0,0 STARLINK-5153,1 54088U 22136AP  24013.82455063  .00000039  00000-0  20558-4 0  9998,2 54088  53.2167 262.1122 0001371  94.6388 265.4760 15.08844515 68811,6917.867,95.437,540.68,538.783,0.0
54088.0,STARLINK-5153,PAYLOAD,2024-01-13 22:58:06,15.08850975,0.0001447,53.2168,261.5176,93.1628,266.953,7.9738e-05,9.82e-06,0.0,0 STARLINK-5153,1 54088U 22136AP  24013.95702514  .00000982  00000-0  79738-4 0  9999,2 54088  53.2168 261.5176 0001447  93.1628 266.9530 15.08850975 68839,6917.847,95.437,540.713,538.711,0.0
54088.0,STARLINK-5153,PAYLOAD,2024-01-14 19:38:08,15.088449,0.0001226,53.2172,257.6514,94.6266,265.4866,0.00010946,1.455e-05,0.0,0 STARLINK-5153,1 54088U 22136AP  24014.81814869  .00001455  00000-0  10946-3 0  9993,2 54088  53.2172 257.6514 0001226  94.6266 265.4866 15.08844900 68966,6917.865,95.437,540.579,538.882,0.0
54088.0,STARLINK-5153,PAYLOAD,2024-01-14 22:48:54,15.08848238,0.0001372,53.217,257.0566,96.2579,263.857,0.00014578,2.033e-05,0.0,0 STARLINK-5153,1 54088U 22136AP  24014.95062607  .00002033  00000-0  14578-3 0  9991,2 54088  53.2170 257.0566 0001372  96.2579 263.8570 15.08848238 68515,6917.855,95.437,540.669,538.771,0.0
54088.0,STARLINK-5153,PAYLOAD,2024-01-15 16:18:09,15.08843282,0.0001533,53.2175,253.7844,99.9707,260.1458,2.2013e-05,6.2e-07,0.0,0 STARLINK-5153,1 54088U 22136AP  24015.67927242  .00000062  00000-0  22013-4 0  9990,2 54088  53.2175 253.7844 0001533  99.9707 260.1458 15.08843282 69097,6917.87,95.437,540.796,538.675,0.0
54088.0,STARLINK-5153,PAYLOAD,2024-01-15 21:04:18,15.08840055,0.0001415,53.2169,252.8962,93.3249,266.7905,-1.0597e-05,-4.57e-06,0.0,0 STARLINK-5153,1 54088U 22136AP  24015.87799416 -.00000457  00000-0 -10597-4 0  9996,2 54088  53.2169 252.8962 0001415  93.3249 266.7905 15.08840055 68654,6917.88,95.438,540.724,538.766,0.0
54088.0,STARLINK-5153,PAYLOAD,2024-01-16 01:50:27,15.08844315,0.0001359,53.2163,252.0019,97.77,262.3446,-5.8791e-05,-1.224e-05,0.0,0 STARLINK-5153,1 54088U 22136AP  24016.07671199 -.00001224  00000-0 -58791-4 0  9997,2 54088  53.2163 252.0019 0001359  97.7700 262.3446 15.08844315 68688,6917.867,95.437,540.672,538.792,0.0
54088.0,STARLINK-5153,PAYLOAD,2024-01-16 19:19:42,15.0884051,0.0001408,53.2169,248.7292,103.8857,256.2291,-2.429e-05,-6.75e-06,0.0,0 STARLINK-5153,1 54088U 22136AP  24016.80535487 -.00000675  00000-0 -24290-4 0  9993,2 54088  53.2169 248.7292 0001408 103.8857 256.2291 15.08840510 69264,6917.879,95.438,540.718,538.77,0.0
54088.0,STARLINK-5153,PAYLOAD,2024-01-16 22:30:28,15.08846815,0.0001817,53.2169,248.1345,110.3862,249.7325,-6.9363e-05,-1.392e-05,0.0,0 STARLINK-5153,1 54088U 22136AP  24016.93783182 -.00001392  00000-0 -69363-4 0  9991,2 54088  53.2169 248.1345 0001817 110.3862 249.7325 15.08846815 68819,6917.86,95.437,540.982,538.468,0.0
54088.0,STARLINK-5153,PAYLOAD,2024-01-17 19:10:30,15.08829054,0.0001475,53.2169,244.2689,102.841,257.2747,1.9833e-05,2.8e-07,0.0,0 STARLINK-5153,1 54088U 22136AP  24017.79896461  .00000028  00000-0  19833-4 0  9991,2 54088  53.2169 244.2689 0001475 102.8410 257.2747 15.08829054 69417,6917.914,95.438,540.799,538.758,0.0
54088.0,STARLINK-5153,PAYLOAD,2024-01-17 22:21:16,15.08834311,0.0001455,53.2165,243.6744,95.2484,264.8674,3.345e-06,-2.35e-06,0.0,0 STARLINK-5153,1 54088U 22136AP  24017.93144266 -.00000235  00000-0  33450-5 0  9999,2 54088  53.2165 243.6744 0001455  95.2484 264.8674 15.08834311 68966,6917.898,95.438,540.769,538.756,0.0
54088.0,STARLINK-5153,PAYLOAD,2024-01-18 01:32:02,15.08832478,0.0001411,53.2166,243.0805,99.4261,260.6891,3.7712e-05,3.12e-06,0.0,0 STARLINK-5153,1 54088U 22136AP  24018.06392342  .00000312  00000-0  37712-4 0  9993,2 54088  53.2166 243.0805 0001411  99.4261 260.6891 15.08832478 68989,6917.903,95.438,540.744,538.792,0.0
54088.0,STARLINK-5153,PAYLOAD,2024-01-18 19:01:17,15.08841385,0.000146,53.2166,239.811,103.4963,256.6192,8.4502e-05,1.057e-05,0.0,0 STARLINK-5153,1 54088U 22136AP  24018.79255830  .00001057  00000-0  84502-4 0  9999,2 54088  53.2166 239.8110 0001460 103.4963 256.6192 15.08841385 69561,6917.876,95.437,540.751,538.731,0.0
54088.0,STARLINK-5153,PAYLOAD,2024-01-18 22:12:03,15.08844217,0.000142,53.2162,239.2158,99.4594,260.6558,0.00010761,1.425e-05,0.0,0 STARLINK-5153,1 54088U 22136AP  24018.92503596  .00001425  00000-0  10761-3 0  9993,2 54088  53.2162 239.2158 0001420  99.4594 260.6558 15.08844217 69112,6917.867,95.437,540.715,538.75,0.0
54088.0,STARLINK-5153,PAYLOAD,2024-01-19 20:27:27,15.08844558,0.0001481,53.216,235.053,84.4344,275.6817,0.00010959,1.457e-05,0.0,0 STARLINK-5153,1 54088U 22136AP  24019.85239630  .00001457  00000-0  10959-3 0  9995,2 54088  53.2160 235.0530 0001481  84.4344 275.6817 15.08844558 69259,6917.866,95.437,540.756,538.707,0.0
54088.0,STARLINK-5153,PAYLOAD,2024-01-20 13:56:41,15.08840793,0.0001722,53.216,231.7863,93.3639,266.755,4.896e-05,4.91e-06,0.0,0 STARLINK-5153,1 54088U 22136AP  24020.58104049  .00000491  00000-0  48960-4 0  9993,2 54088  53.2160 231.7863 0001722  93.3639 266.7550 15.08840793 69369,6917.878,95.438,540.934,538.552,0.0
